NIMIQ 4                 
1 33373U 08044A   26166.52797347  .00000000  00000+0  00000+0 0  9998
2 33373   0.0315  39.0383 0002118  38.0958 294.7793  1.00268183 64966
GALAXY 19 (G-19)        
1 33376U 08045A   26166.52502679 -.00000136  00000+0  00000+0 0  9995
2 33376   0.0404 264.5218 0002365 182.9249 268.3762  1.00270743 64885
ASTRA 1M                
1 33436U 08057A   26166.54808023  .00000123  00000+0  00000+0 0  9994
2 33436   0.2925  82.4343 0004629  23.9280  14.1372  1.00270839 45724
EUTELSAT HOTBIRD 13C    
1 33459U 08065A   26166.53421351 -.00000282  00000+0  00000+0 0  9999
2 33459   2.9463  79.2103 0003258   4.5055 322.1258  1.00271385 47325
EXPRESS-AM44            
1 33595U 09007A   26166.39946821 -.00000089  00000+0  00000+0 0  9990
2 33595   3.4580  78.4141 0003818 359.3551 318.7174  1.00270972 52267
NSS-9                   
1 33749U 09008A   26166.15267918  .00000075  00000+0  00000+0 0  9993
2 33749   1.2567  82.6777 0001839 349.2934  69.5171  1.00273074 63508
TELSTAR 11N             
1 34111U 09009A   26166.39418152 -.00000248  00000+0  00000+0 0  9995
2 34111   0.0153  48.7998 0002144  29.0719 290.1513  1.00270859 46222
WGS F2 (USA 204)        
1 34713U 09017A   26166.48433757  .00000071  00000+0  00000+0 0  9993
2 34713   0.0169 350.7003 0000468 286.6242 218.3135  1.00269870 45603
SES-7 (PROTOSTAR 2)     
1 34941U 09027A   26166.28050799 -.00000341  00000+0  00000+0 0  9997
2 34941   0.0581  76.3170 0000521 247.0108 149.4859  1.00270418 62619
MEASAT-3A               
1 35362U 09032A   26166.51433785 -.00000108  00000+0  00000+0 0  9998
2 35362   0.0229 341.7204 0002825  96.8363 170.4091  1.00271537  8014
GOES 14                 
1 35491U 09033A   26166.57244536 -.00000284  00000+0  00000+0 0  9997
2 35491   1.6861  83.0618 0001716  10.8891 158.7461  1.00111281  6579
FM-5                    
1 35493U 09034A   26165.81425551 -.00000194  00000+0  00000+0 0  9994
2 35493   0.0205 292.4193 0001018  18.8658 158.8044  1.00269724 46628
TERRESTAR-1             
1 35496U 09035A   26166.38732546 -.00000057  00000+0  00000+0 0  9994
2 35496   5.1818  48.7997 0002789  26.7668 216.5300  1.00270024 62110
ASIASAT 5               
1 35696U 09042A   26166.65057051  .00000000  00000+0  00000+0 0  9992
2 35696   0.0236  30.5496 0001564  53.5866 154.5480  1.00267817 61699
JCSAT-12 (JCSAT-RA)     
1 35755U 09044A   26166.59293863 -.00000325  00000+0  00000+0 0  9997
2 35755   0.0109 323.7844 0000461 353.0400 292.5517  1.00271790 61593
OPTUS D3                
1 35756U 09044B   26166.51433785 -.00000143  00000+0  00000+0 0  9997
2 35756   0.8720 269.0595 0002696 180.2084 155.8309  1.00268913 61544
NIMIQ 5                 
1 35873U 09050A   26166.45850500 -.00000254  00000+0  00000+0 0  9998
2 35873   0.0133 300.9198 0002597 139.1640 276.0298  1.00270560 61329
AMAZONAS 2              
1 35942U 09054A   26166.45867833 -.00000257  00000+0  00000+0 0  9999
2 35942   1.8113  83.0703 0003146 357.3160 276.4765  1.00269111 61161
COMSATBW-1              
1 35943U 09054B   26166.60168566  .00000026  00000+0  00000+0 0  9997
2 35943   0.0779  78.0107 0002739  12.7290  92.7736  1.00272792 61296
NSS-12                  
1 36032U 09058A   26166.55553360  .00000073  00000+0  00000+0 0  9997
2 36032   0.0415  47.8831 0004478   3.3273 109.6242  1.00273850 60903
THOR 6                  
1 36033U 09058B   26166.33017115  .00000000  00000+0  00000+0 0  9997
2 36033   0.0165  37.2517 0001528  41.5495 302.8402  1.00270069 60985
INTELSAT 14 (IS-14)     
1 36097U 09064A   26166.46396502 -.00000271  00000+0  00000+0 0  9999
2 36097   0.0222 292.8986 0002215 140.2018 312.6838  1.00267871 60585
EUTELSAT 36B            
1 36101U 09065A   26166.55423360  .00000114  00000+0  00000+0 0  9994
2 36101   0.4875  81.0847 0005766   1.6310  71.1427  1.00273098 60693
INTELSAT 15 (IS-15)     
1 36106U 09067A   26166.48979759 -.00000182  00000+0  00000+0 0  9997
2 36106   0.0171 302.3670 0001872 151.5293  71.3534  1.00268544 41213
WGS F3 (USA 211)        
1 36108U 09068A   26166.51844009  .00000067  00000+0  00000+0 0  9994
2 36108   0.3277  85.8019 0000089 198.8023  35.8414  1.00270178 46571
DIRECTV 12              
1 36131U 09075A   26166.45252497 -.00000101  00000+0  00000+0 0  9995
2 36131   0.0233 154.0951 0000337 245.9985 283.8318  1.00272221 46532
BEIDOU-2 G1             
1 36287U 10001A   26166.57201203 -.00000281  00000+0  00000+0 0  9999
2 36287   4.2887  60.4093 0002299 297.4199 252.4256  1.00270863 60157
SDO                     
1 36395U 10005A   26165.43714222 -.00000094  00000+0  00000+0 0  9999
2 36395  34.6460  86.3840 0001714  49.5303 182.1298  1.00269990 60033
INTELSAT 16 (IS-16)     
1 36397U 10006A   26166.45781166 -.00000242  00000+0  00000+0 0  9991
2 36397   0.0193 305.3193 0001915 160.1112 246.9194  1.00269456 59636
EWS-G2 (GOES 15)        
1 36411U 10008A   26166.55683360  .00000019  00000+0  00000+0 0  9999
2 36411   1.2735  82.8801 0005393  42.4304  42.6912  1.00275734 59624
ECHOSTAR 14             
1 36499U 10010A   26166.52069344  .00000003  00000+0  00000+0 0  9998
2 36499   0.0422  83.6704 0002308  19.1392 229.5632  1.00272347 46530
SES-1                   
1 36516U 10016A   26166.38360556 -.00000111  00000+0  00000+0 0  9998
2 36516   0.0150 325.9226 0002485 117.4096 217.4366  1.00271129 59012
